1 44764U 19074BD  22365.51583197  .00023952  00000-0  13757-2 0  9999
2 44764  53.0566  29.1543 0001771 320.6833  39.4030 15.12413013173222
1 44764U 19074BD  22365.78016142  .00023429  00000-0  13456-2 0  9994
2 44764  53.0566  27.9564 0001771 321.7852  38.3014 15.12426856173098
1 44764U 19074BD  23001.44097551  .00024426  00000-0  14007-2 0  9999
2 44764  53.0565  24.9626 0001793 326.4436  33.6442 15.12459390173190
1 44764U 19074BD  23001.77137750  .00022986  00000-0  13188-2 0  9999
2 44764  53.0565  23.4652 0001801 328.9313  31.1572 15.12474413173240
1 44764U 19074BD  23001.77137750  .00022986  00000-0  13188-2 0  9999
2 44764  53.0565  23.4652 0001801 328.9313  31.1572 15.12474413173419
1 44764U 19074BD  23002.36609228  .00021071  00000-0  12098-2 0  9992
2 44764  53.0565  20.7707 0001829 333.2513  26.8384 15.12501078173332
1 44764U 19074BD  23002.76256300  .00020139  00000-0  11566-2 0  9998
2 44764  53.0563  18.9736 0001837 335.1661  24.9242 15.12518654173391
1 44764U 19074BD  23003.02687437  .00019839  00000-0  11393-2 0  9990
2 44764  53.0563  17.7756 0001832 336.6791  23.4117 15.12530047173604
1 44764U 19074BD  23003.29118342  .00024018  00000-0  13744-2 0  9990
2 44764  53.0562  16.5781 0001866 338.6322  21.4591 15.12544485173477
1 44764U 19074BD  23004.08409890  .00022368  00000-0  12802-2 0  9999
2 44764  53.0561  12.9843 0001899 342.9476  17.1451 15.12578684173766
1 44764U 19074BD  23004.41447414  .00028729  00000-0  16371-2 0  9992
2 44764  53.0562  11.4873 0001974 345.5848  14.5087 15.12599494173645
1 44764U 19074BD  23004.74484395  .00032217  00000-0  18317-2 0  9996
2 44764  53.0562   9.9895 0001952 346.8396  13.2545 15.12623282173861
1 44764U 19074BD  23004.81091725  .00028994  00000-0  16508-2 0  9992
2 44764  53.0563   9.6898 0001957 346.8025  13.2916 15.12625336173703
1 44764U 19074BD  23005.27342649  .00023877  00000-0  13624-2 0  9998
2 44764  53.0565   7.5937 0002004 349.7898  10.3053 15.12651184173777
1 44764U 19074BD  23006.26448729  .00031200  00000-0  17699-2 0  9999
2 44764  53.0570   3.1017 0002088 355.0402   5.0569 15.12719295174094
1 44764U 19074BD  23006.39662559  .00031868  00000-0  18068-2 0  9993
2 44764  53.0570   2.5022 0002080 355.3780   4.7192 15.12728217173942
1 44764U 19074BD  23007.38763914  .00029697  00000-0  16825-2 0  9996
2 44764  53.0575 358.0103 0002125 359.4822   0.6167 15.12789175174092
1 44764U 19074BD  23007.38763914  .00029697  00000-0  16825-2 0  9996
2 44764  53.0575 358.0103 0002125 359.4822   0.6167 15.12789175174261
1 44764U 19074BD  23008.44467560  .00029367  00000-0  16610-2 0  9998
2 44764  53.0578 353.2176 0002097   4.0247 356.0762 15.12855604174252
1 44764U 19074BD  23008.44467560  .00029367  00000-0  16610-2 0  9998
2 44764  53.0578 353.2176 0002097   4.0247 356.0762 15.12855604174421
1 44764U 19074BD  23008.90711395  .00032992  00000-0  18613-2 0  9990
2 44764  53.0578 351.1208 0002084   5.6962 354.4054 15.12888721174322
1 44764U 19074BD  23009.30348220  .00032053  00000-0  18078-2 0  9991
2 44764  53.0578 349.3237 0002066   7.2409 352.8612 15.12913897174388
1 44764U 19074BD  23009.63378410  .00029534  00000-0  16667-2 0  9993
2 44764  53.0578 347.8261 0002048   8.2653 351.8372 15.12933785174436
1 44764U 19074BD  23009.63378410  .00029534  00000-0  16667-2 0  9993
2 44764  53.0578 347.8261 0002048   8.2653 351.8372 15.12933785174605
1 44764U 19074BD  23010.29437385  .00032253  00000-0  18157-2 0  9992
2 44764  53.0576 344.8307 0002017  11.1837 348.9200 15.12977830174532
1 44764U 19074BD  23010.62466098  .00032722  00000-0  18405-2 0  9999
2 44764  53.0575 343.3331 0002023  12.7553 347.3490 15.13001972174586
1 44764U 19074BD  23010.62466098  .00032722  00000-0  18405-2 0  9999
2 44764  53.0575 343.3331 0002023  12.7553 347.3490 15.13001972174755
1 44764U 19074BD  23011.21916480  .00037980  00000-0  21292-2 0  9999
2 44764  53.0573 340.6373 0002029  15.5489 344.5565 15.13048369174678
1 44764U 19074BD  23011.61548968  .00041550  00000-0  23243-2 0  9991
2 44764  53.0571 338.8398 0002011  17.4075 342.6986 15.13083605174909
1 44764U 19074BD  23011.87970137  .00041106  00000-0  22984-2 0  9994
2 44764  53.0570 337.6414 0001993  18.6651 341.4414 15.13105817174773
1 44764U 19074BD  23012.60626344  .00040657  00000-0  22697-2 0  9995
2 44764  53.0566 334.3460 0001978  22.5462 337.5616 15.13167090174883
1 44764U 19074BD  23013.13465317  .00041686  00000-0  23234-2 0  9996
2 44764  53.0564 331.9491 0001980  25.3069 334.8019 15.13213031175138
1 44764U 19074BD  23013.59697912  .00045007  00000-0  25027-2 0  9997
2 44764  53.0566 329.8518 0001998  28.5728 331.5373 15.13260228175038
1 44764U 19074BD  23014.12533421  .00049436  00000-0  27414-2 0  9993
2 44764  53.0564 327.4544 0001988  30.6239 329.4869 15.13315767175281
1 44764U 19074BD  23014.25741920  .00060563  00000-0  33473-2 0  9998
2 44764  53.0563 326.8552 0002009  31.8518 328.2596 15.13339513175302
1 44764U 19074BD  23015.24801998  .00063461  00000-0  34946-2 0  9996
2 44764  53.0564 322.3591 0001925  38.2135 321.8993 15.13448340175454
1 44764U 19074BD  23015.57820188  .00057796  00000-0  31827-2 0  9993
2 44764  53.0566 320.8613 0001976  39.0328 321.0806 15.13492634175330
1 44764U 19074BD  23016.10647298  .00070879  00000-0  38839-2 0  9999
2 44764  53.0564 318.4637 0002007  40.6845 319.4297 15.13569775175410
1 44764U 19074BD  23016.10647298  .00070879  00000-0  38839-2 0  9999
2 44764  53.0564 318.4637 0002007  40.6845 319.4297 15.13569775175588
1 44764U 19074BD  23016.83280433  .00059072  00000-0  32368-2 0  9996
2 44764  53.0567 315.1671 0002070  43.0430 317.0724 15.13660094175529
1 44764U 19074BD  23017.09691530  .00057400  00000-0  31440-2 0  9992
2 44764  53.0570 313.9677 0002039  44.5822 315.5334 15.13686684175737
1 44764U 19074BD  23017.22896886  .00047069  00000-0  25840-2 0  9995
2 44764  53.0567 313.3682 0002033  45.2933 314.8224 15.13698347175580
1 44764U 19074BD  23017.22896886  .00047069  00000-0  25840-2 0  9995
2 44764  53.0567 313.3682 0002033  45.2933 314.8224 15.13698347175759
1 44764U 19074BD  23018.21933411  .00064071  00000-0  34927-2 0  9999
2 44764  53.0573 308.8715 0001965  49.6127 310.5036 15.13804270175734
1 44764U 19074BD  23018.21933411  .00064071  00000-0  34927-2 0  9999
2 44764  53.0573 308.8715 0001965  49.6127 310.5036 15.13804270175903
1 44764U 19074BD  23019.14360915  .00059182  00000-0  32201-2 0  9995
2 44764  53.0578 304.6745 0001909  53.3702 306.7465 15.13910241176049
1 44764U 19074BD  23019.20962618  .00046194  00000-0  25212-2 0  9993
2 44764  53.0578 304.3747 0001905  53.8905 306.2263 15.13915258175889
1 44764U 19074BD  23019.20962618  .00046194  00000-0  25212-2 0  9993
2 44764  53.0578 304.3747 0001905  53.8905 306.2263 15.13915258176059
1 44764U 19074BD  23020.46389878  .00048214  00000-0  26208-2 0  9995
2 44764  53.0577 298.6790 0001882  57.0098 303.1075 15.14039925176072
1 44764U 19074BD  23020.46389878  .00048214  00000-0  26208-2 0  9995
2 44764  53.0577 298.6790 0001882  57.0098 303.1075 15.14039925176241
1 44764U 19074BD  23022.11409835  .00053009  00000-0  28642-2 0  9997
2 44764  53.0568 291.1826 0001737  65.6794 294.4379 15.14210073176497
1 44764U 19074BD  23023.10413324  .00045696  00000-0  24678-2 0  9993
2 44764  53.0558 286.6844 0001696  70.4804 289.6371 15.14297200176647
1 44764U 19074BD  23024.02811687  .00041312  00000-0  22293-2 0  9991
2 44764  53.0550 282.4855 0001705  73.1722 286.9457 15.14370959176788
1 44764U 19074BD  23025.08404538  .00036666  00000-0  19775-2 0  9998
2 44764  53.0547 277.6851 0001741  75.5832 284.5353 15.14447027176942
1 44764U 19074BD  23025.41401262  .00031004  00000-0  16751-2 0  9998
2 44764  53.0543 276.1857 0001676  78.3287 281.7893 15.14465399176827
1 44764U 19074BD  23026.07393569  .00035090  00000-0  18904-2 0  9992
2 44764  53.0545 273.1856 0001738  79.3432 280.7756 15.14507232176928
1 44764U 19074BD  23026.07393569  .00035090  00000-0  18904-2 0  9992
2 44764  53.0545 273.1856 0001738  79.3432 280.7756 15.14507232177097
1 44764U 19074BD  23026.86582020  .00029396  00000-0  15856-2 0  9996
2 44764  53.0545 269.5851 0001745  80.7149 279.4041 15.14550675177215
1 44764U 19074BD  23027.06378800  .00030420  00000-0  16395-2 0  9997
2 44764  53.0545 268.6860 0001774  78.1495 281.9696 15.14562227177076
1 44764U 19074BD  23027.85564518  .00025265  00000-0  13640-2 0  9998
2 44764  53.0548 265.0855 0001782  79.3449 280.7745 15.14599363177191
1 44764U 19074BD  23028.05360686  .00024693  00000-0  13333-2 0  9994
2 44764  53.0547 264.1863 0001781  75.5906 284.5284 15.14607459177224
1 44764U 19074BD  23028.05360686  .00024693  00000-0  13333-2 0  9994
2 44764  53.0547 264.1863 0001781  75.5906 284.5284 15.14607459177392
1 44764U 19074BD  23028.91142732  .00019047  00000-0  10320-2 0  9999
2 44764  53.0552 260.2857 0001812  77.4102 282.7094 15.14639896177357
1 44764U 19074BD  23029.04339812  .00018936  00000-0  10260-2 0  9990
2 44764  53.0553 259.6858 0001810  76.7619 283.3576 15.14644903177542
1 44764U 19074BD  23029.90119748  .00015798  00000-0  85830-3 0  9998
2 44764  53.0560 255.7855 0001853  79.1250 280.9951 15.14674244177506
1 44764U 19074BD  23030.03316522  .00015975  00000-0  86762-3 0  9995
2 44764  53.0560 255.1851 0001847  80.2623 279.8578 15.14678656177521
1 44764U 19074BD  23030.89094795  .00013479  00000-0  73441-3 0  9991
2 44764  53.0565 251.2850 0001848  80.8684 279.2518 15.14701829177657
1 44764U 19074BD  23031.02291329  .00013608  00000-0  74114-3 0  9991
2 44764  53.0564 250.6849 0001841  81.0129 279.1072 15.14705857177678
1 44764U 19074BD  23031.02291329  .00013608  00000-0  74114-3 0  9991
2 44764  53.0564 250.6849 0001841  81.0129 279.1072 15.14705857177847
1 44764U 19074BD  23031.88068070  .00014541  00000-0  79024-3 0  9992
2 44764  53.0564 246.7847 0001825  81.5690 278.5509 15.14730381177805
